[{"OBJECT_NAME":"CENTISPACE-1 OBJECT C","OBJECT_ID":"2026-060C","EPOCH":"2026-04-03T20:01:13.468224","MEAN_MOTION":14.75113378,"ECCENTRICITY":0.0012997,"INCLINATION":54.9838,"RA_OF_ASC_NODE":339.0315,"ARG_OF_PERICENTER":330.3365,"MEAN_ANOMALY":29.6896,"EPHEMERIS_TYPE":0,"CLASSIFICATION_TYPE":"U","NORAD_CAT_ID":68352,"ELEMENT_SET_NO":999,"REV_AT_EPOCH":180,"BSTAR":5.4118e-5,"MEAN_MOTION_DOT":1.58e-6,"MEAN_MOTION_DDOT":0},{"OBJECT_NAME":"CENTISPACE-1 OBJECT D","OBJECT_ID":"2026-060D","EPOCH":"2026-03-31T12:19:36.304032","MEAN_MOTION":14.75128916,"ECCENTRICITY":0.00132122,"INCLINATION":54.9893,"RA_OF_ASC_NODE":352.5746,"ARG_OF_PERICENTER":325.1986,"MEAN_ANOMALY":34.8148,"EPHEMERIS_TYPE":0,"CLASSIFICATION_TYPE":"U","NORAD_CAT_ID":68353,"ELEMENT_SET_NO":999,"REV_AT_EPOCH":131,"BSTAR":4.3489466e-5,"MEAN_MOTION_DOT":8.6e-7,"MEAN_MOTION_DDOT":0},{"OBJECT_NAME":"CENTISPACE-1 OBJECT E","OBJECT_ID":"2026-060E","EPOCH":"2026-04-03T18:22:28.394688","MEAN_MOTION":14.75213215,"ECCENTRICITY":0.0013669,"INCLINATION":54.9766,"RA_OF_ASC_NODE":339.2991,"ARG_OF_PERICENTER":331.0267,"MEAN_ANOMALY":28.9972,"EPHEMERIS_TYPE":0,"CLASSIFICATION_TYPE":"U","NORAD_CAT_ID":68354,"ELEMENT_SET_NO":999,"REV_AT_EPOCH":179,"BSTAR":5.3468e-5,"MEAN_MOTION_DOT":1.54e-6,"MEAN_MOTION_DDOT":0},{"OBJECT_NAME":"CENTISPACE-1 OBJECT F","OBJECT_ID":"2026-060F","EPOCH":"2026-04-01T12:42:18.852768","MEAN_MOTION":14.75237979,"ECCENTRICITY":0.00139241,"INCLINATION":54.9764,"RA_OF_ASC_NODE":348.4206,"ARG_OF_PERICENTER":323.7943,"MEAN_ANOMALY":36.2113,"EPHEMERIS_TYPE":0,"CLASSIFICATION_TYPE":"U","NORAD_CAT_ID":68355,"ELEMENT_SET_NO":999,"REV_AT_EPOCH":146,"BSTAR":3.8992472e-5,"MEAN_MOTION_DOT":5.6e-7,"MEAN_MOTION_DDOT":0},{"OBJECT_NAME":"CENTISPACE-1 OBJECT G","OBJECT_ID":"2026-060G","EPOCH":"2026-04-02T00:04:31.532736","MEAN_MOTION":14.75310904,"ECCENTRICITY":0.00142424,"INCLINATION":54.988,"RA_OF_ASC_NODE":346.4927,"ARG_OF_PERICENTER":325.6905,"MEAN_ANOMALY":34.3173,"EPHEMERIS_TYPE":0,"CLASSIFICATION_TYPE":"U","NORAD_CAT_ID":68356,"ELEMENT_SET_NO":999,"REV_AT_EPOCH":153,"BSTAR":3.8325405e-5,"MEAN_MOTION_DOT":5.1e-7,"MEAN_MOTION_DDOT":0},{"OBJECT_NAME":"CENTISPACE-1 OBJECT H","OBJECT_ID":"2026-060H","EPOCH":"2026-04-02T09:49:01.049088","MEAN_MOTION":14.75277593,"ECCENTRICITY":0.00138214,"INCLINATION":54.9838,"RA_OF_ASC_NODE":344.8287,"ARG_OF_PERICENTER":328.1926,"MEAN_ANOMALY":31.8237,"EPHEMERIS_TYPE":0,"CLASSIFICATION_TYPE":"U","NORAD_CAT_ID":68357,"ELEMENT_SET_NO":999,"REV_AT_EPOCH":159,"BSTAR":4.8805088e-5,"MEAN_MOTION_DOT":1.23e-6,"MEAN_MOTION_DDOT":0},{"OBJECT_NAME":"CENTISPACE-1 OBJECT J","OBJECT_ID":"2026-060J","EPOCH":"2026-03-31T22:02:32.676000","MEAN_MOTION":14.75410591,"ECCENTRICITY":0.00147259,"INCLINATION":54.9876,"RA_OF_ASC_NODE":350.9118,"ARG_OF_PERICENTER":324.9275,"MEAN_ANOMALY":35.0754,"EPHEMERIS_TYPE":0,"CLASSIFICATION_TYPE":"U","NORAD_CAT_ID":68358,"ELEMENT_SET_NO":999,"REV_AT_EPOCH":137,"BSTAR":4.4082868e-5,"MEAN_MOTION_DOT":9.1e-7,"MEAN_MOTION_DDOT":0},{"OBJECT_NAME":"CENTISPACE-1 OBJECT K","OBJECT_ID":"2026-060K","EPOCH":"2026-04-03T21:34:08.688288","MEAN_MOTION":14.75503803,"ECCENTRICITY":0.0015625,"INCLINATION":54.9803,"RA_OF_ASC_NODE":338.7314,"ARG_OF_PERICENTER":332.3364,"MEAN_ANOMALY":27.6803,"EPHEMERIS_TYPE":0,"CLASSIFICATION_TYPE":"U","NORAD_CAT_ID":68359,"ELEMENT_SET_NO":999,"REV_AT_EPOCH":181,"BSTAR":5.3252e-5,"MEAN_MOTION_DOT":1.54e-6,"MEAN_MOTION_DDOT":0},{"OBJECT_NAME":"RASSVET-3 1","OBJECT_ID":"2026-061A","EPOCH":"2026-04-03T19:19:18.506784","MEAN_MOTION":15.89738429,"ECCENTRICITY":0.0025237,"INCLINATION":82.2952,"RA_OF_ASC_NODE":96.1451,"ARG_OF_PERICENTER":33.7231,"MEAN_ANOMALY":326.564,"EPHEMERIS_TYPE":0,"CLASSIFICATION_TYPE":"U","NORAD_CAT_ID":68360,"ELEMENT_SET_NO":999,"REV_AT_EPOCH":176,"BSTAR":0.00051396,"MEAN_MOTION_DOT":0.00155431,"MEAN_MOTION_DDOT":7.3607e-6},{"OBJECT_NAME":"RASSVET-3 2","OBJECT_ID":"2026-061B","EPOCH":"2026-04-03T19:21:54.660096","MEAN_MOTION":15.89002535,"ECCENTRICITY":0.0026481,"INCLINATION":82.2966,"RA_OF_ASC_NODE":96.1485,"ARG_OF_PERICENTER":33.1555,"MEAN_ANOMALY":327.1369,"EPHEMERIS_TYPE":0,"CLASSIFICATION_TYPE":"U","NORAD_CAT_ID":68361,"ELEMENT_SET_NO":999,"REV_AT_EPOCH":176,"BSTAR":0.00030882,"MEAN_MOTION_DOT":0.00090386,"MEAN_MOTION_DDOT":1.6882e-6},{"OBJECT_NAME":"RASSVET-3 3","OBJECT_ID":"2026-061C","EPOCH":"2026-04-03T19:21:41.351040","MEAN_MOTION":15.89005011,"ECCENTRICITY":0.0026325,"INCLINATION":82.2965,"RA_OF_ASC_NODE":96.1481,"ARG_OF_PERICENTER":33.0421,"MEAN_ANOMALY":327.2488,"EPHEMERIS_TYPE":0,"CLASSIFICATION_TYPE":"U","NORAD_CAT_ID":68362,"ELEMENT_SET_NO":999,"REV_AT_EPOCH":176,"BSTAR":0.00028794,"MEAN_MOTION_DOT":0.00084279,"MEAN_MOTION_DDOT":1.3191e-6},{"OBJECT_NAME":"RASSVET-3 4","OBJECT_ID":"2026-061D","EPOCH":"2026-04-03T19:21:28.526688","MEAN_MOTION":15.89020594,"ECCENTRICITY":0.002636,"INCLINATION":82.2966,"RA_OF_ASC_NODE":96.1481,"ARG_OF_PERICENTER":32.8969,"MEAN_ANOMALY":327.3936,"EPHEMERIS_TYPE":0,"CLASSIFICATION_TYPE":"U","NORAD_CAT_ID":68363,"ELEMENT_SET_NO":999,"REV_AT_EPOCH":176,"BSTAR":0.00028823,"MEAN_MOTION_DOT":0.00084437,"MEAN_MOTION_DDOT":1.3288e-6},{"OBJECT_NAME":"RASSVET-3 5","OBJECT_ID":"2026-061E","EPOCH":"2026-04-03T19:21:17.591904","MEAN_MOTION":15.89041784,"ECCENTRICITY":0.0026304,"INCLINATION":82.2965,"RA_OF_ASC_NODE":96.1476,"ARG_OF_PERICENTER":32.9911,"MEAN_ANOMALY":327.2995,"EPHEMERIS_TYPE":0,"CLASSIFICATION_TYPE":"U","NORAD_CAT_ID":68364,"ELEMENT_SET_NO":999,"REV_AT_EPOCH":176,"BSTAR":0.00028602,"MEAN_MOTION_DOT":0.00083871,"MEAN_MOTION_DDOT":1.2963e-6},{"OBJECT_NAME":"RASSVET-3 6","OBJECT_ID":"2026-061F","EPOCH":"2026-04-03T19:20:47.651712","MEAN_MOTION":15.89153811,"ECCENTRICITY":0.0026154,"INCLINATION":82.2965,"RA_OF_ASC_NODE":96.1472,"ARG_OF_PERICENTER":33.0677,"MEAN_ANOMALY":327.2223,"EPHEMERIS_TYPE":0,"CLASSIFICATION_TYPE":"U","NORAD_CAT_ID":68365,"ELEMENT_SET_NO":999,"REV_AT_EPOCH":176,"BSTAR":0.00029056,"MEAN_MOTION_DOT":0.00085647,"MEAN_MOTION_DDOT":1.4035e-6},{"OBJECT_NAME":"RASSVET-3 7","OBJECT_ID":"2026-061G","EPOCH":"2026-04-03T11:47:35.238912","MEAN_MOTION":15.89027704,"ECCENTRICITY":0.00261792,"INCLINATION":82.2965,"RA_OF_ASC_NODE":96.5042,"ARG_OF_PERICENTER":34.3438,"MEAN_ANOMALY":325.9519,"EPHEMERIS_TYPE":0,"CLASSIFICATION_TYPE":"U","NORAD_CAT_ID":68366,"ELEMENT_SET_NO":999,"REV_AT_EPOCH":171,"BSTAR":0.00025394053,"MEAN_MOTION_DOT":0.0007443,"MEAN_MOTION_DDOT":7.79433e-7},{"OBJECT_NAME":"RASSVET-3 8","OBJECT_ID":"2026-061H","EPOCH":"2026-04-03T11:47:42.277056","MEAN_MOTION":15.89007514,"ECCENTRICITY":0.00261681,"INCLINATION":82.2965,"RA_OF_ASC_NODE":96.504,"ARG_OF_PERICENTER":34.3053,"MEAN_ANOMALY":325.9902,"EPHEMERIS_TYPE":0,"CLASSIFICATION_TYPE":"U","NORAD_CAT_ID":68367,"ELEMENT_SET_NO":999,"REV_AT_EPOCH":171,"BSTAR":0.00024612448,"MEAN_MOTION_DOT":0.00072075,"MEAN_MOTION_DDOT":6.60185e-7}]
