CENTISPACE-1 OBJECT C   
1 68352U 26060C   26093.83418366  .00000158  00000+0  54118-4 0  9993
2 68352  54.9838 339.0315 0012997 330.3365  29.6896 14.75113378  1807
CENTISPACE-1 OBJECT D   
1 68353U 26060D   26090.51361463  .00000086  00000+0  43489-4 0  9990
2 68353  54.9893 352.5746 0013212 325.1986  34.8148 14.75128916  1317
CENTISPACE-1 OBJECT E   
1 68354U 26060E   26093.76560642  .00000154  00000+0  53468-4 0  9995
2 68354  54.9766 339.2991 0013669 331.0267  28.9972 14.75213215  1793
CENTISPACE-1 OBJECT F   
1 68355U 26060F   26091.52938487  .00000056  00000+0  38992-4 0  9990
2 68355  54.9764 348.4206 0013924 323.7943  36.2113 14.75237979  1462
CENTISPACE-1 OBJECT G   
1 68356U 26060G   26092.00314274  .00000051  00000+0  38325-4 0  9992
2 68356  54.9880 346.4927 0014242 325.6905  34.3173 14.75310904  1536
CENTISPACE-1 OBJECT H   
1 68357U 26060H   26092.40903992  .00000123  00000+0  48805-4 0  9992
2 68357  54.9838 344.8287 0013821 328.1926  31.8237 14.75277593  1599
CENTISPACE-1 OBJECT J   
1 68358U 26060J   26090.91843375  .00000091  00000+0  44083-4 0  9993
2 68358  54.9876 350.9118 0014725 324.9275  35.0754 14.75410591  1371
CENTISPACE-1 OBJECT K   
1 68359U 26060K   26093.89871167  .00000154  00000+0  53252-4 0  9992
2 68359  54.9803 338.7314 0015625 332.3364  27.6803 14.75503803  1816
RASSVET-3 1             
1 68360U 26061A   26093.80507531  .00155431  73607-5  51396-3 0  9991
2 68360  82.2952  96.1451 0025237  33.7231 326.5640 15.89738429  1763
RASSVET-3 2             
1 68361U 26061B   26093.80688264  .00090386  16882-5  30882-3 0  9991
2 68361  82.2966  96.1485 0026481  33.1555 327.1369 15.89002535  1768
RASSVET-3 3             
1 68362U 26061C   26093.80672860  .00084279  13191-5  28794-3 0  9990
2 68362  82.2965  96.1481 0026325  33.0421 327.2488 15.89005011  1767
RASSVET-3 4             
1 68363U 26061D   26093.80658017  .00084437  13288-5  28823-3 0  9995
2 68363  82.2966  96.1481 0026360  32.8969 327.3936 15.89020594  1764
RASSVET-3 5             
1 68364U 26061E   26093.80645361  .00083871  12963-5  28602-3 0  9999
2 68364  82.2965  96.1476 0026304  32.9911 327.2995 15.89041784  1762
RASSVET-3 6             
1 68365U 26061F   26093.80610708  .00085647  14035-5  29056-3 0  9996
2 68365  82.2965  96.1472 0026154  33.0677 327.2223 15.89153811  1762
RASSVET-3 7             
1 68366U 26061G   26093.49138008  .00074430  77943-6  25394-3 0  9997
2 68366  82.2965  96.5042 0026179  34.3438 325.9519 15.89027704  1715
RASSVET-3 8             
1 68367U 26061H   26093.49146154  .00072075  66018-6  24612-3 0  9995
2 68367  82.2965  96.5040 0026168  34.3053 325.9902 15.89007514  1718
